[{"OBJECT_NAME":"BIOMASS","OBJECT_ID":"2025-090A","EPOCH":"2026-03-09T23:05:06.323136","MEAN_MOTION":14.67534568,"ECCENTRICITY":0.00013514,"INCLINATION":98.0739,"RA_OF_ASC_NODE":257.7072,"ARG_OF_PERICENTER":76.3512,"MEAN_ANOMALY":283.7843,"EPHEMERIS_TYPE":0,"CLASSIFICATION_TYPE":"U","NORAD_CAT_ID":63772,"ELEMENT_SET_NO":999,"REV_AT_EPOCH":4613,"BSTAR":8.7894818e-5,"MEAN_MOTION_DOT":4.5e-6,"MEAN_MOTION_DDOT":0},{"OBJECT_NAME":"CZ-6A DEB","OBJECT_ID":"2024-140X","EPOCH":"2026-03-09T15:40:35.192640","MEAN_MOTION":14.52662653,"ECCENTRICITY":0.010263,"INCLINATION":89.0057,"RA_OF_ASC_NODE":283.1823,"ARG_OF_PERICENTER":255.2326,"MEAN_ANOMALY":103.7492,"EPHEMERIS_TYPE":0,"CLASSIFICATION_TYPE":"U","NORAD_CAT_ID":60622,"ELEMENT_SET_NO":999,"REV_AT_EPOCH":8409,"BSTAR":0.0003489,"MEAN_MOTION_DOT":1.547e-5,"MEAN_MOTION_DDOT":0}]
